{"type": "FeatureCollection", "features": [ {"type": "Feature", "properties": {"norad_id": 39122, "name": "EUTELSAT 117 WEST A", "group": "eutelsat", "lat": -0.034999245791904374, "lon": -167.87120805278545, "alt_km": 35783.59308191606, "timestamp": "2025-12-20T14:38:01.629970+00:00", "meta": {"OBJECT_NAME": "EUTELSAT 117 WEST A", "OBJECT_ID": "2013-012A", "EPOCH": "2025-12-19T12:21:38.812320", "MEAN_MOTION": 1.00274631, "ECCENTRICITY": 0.0002807, "INCLINATION": 0.032, "RA_OF_ASC_NODE": 299.7491, "ARG_OF_PERICENTER": 334.4616, "MEAN_ANOMALY": 242.7738, "EPHEMERIS_TYPE": 0, "CLASSIFICATION_TYPE": "U", "NORAD_CAT_ID": 39122, "ELEMENT_SET_NO": 999, "REV_AT_EPOCH": 4663, "BSTAR": 0, "MEAN_MOTION_DOT": 1.1e-07, "MEAN_MOTION_DDOT": 0}, "tle": {"line1": "1 39122U 13012A   25353.51503255  .00000011  00000+0  00000+0 0  9998", "line2": "2 39122   0.0320 299.7491 0002807 334.4616 242.7738  1.00274631 46635"}}, "geometry": {"type": "Point", "coordinates": [-167.87120805278545, -0.034999245791904374]}}, {"type": "Feature", "properties": {"norad_id": 39163, "name": "EUTELSAT 7B", "group": "eutelsat", "lat": -0.06241263711130599, "lon": -44.069217878942965, "alt_km": 35768.113018150645, "timestamp": "2025-12-20T14:38:01.629983+00:00", "meta": {"OBJECT_NAME": "EUTELSAT 7B", "OBJECT_ID": "2013-022A", "EPOCH": "2025-12-20T04:42:12.609792", "MEAN_MOTION": 1.0027074, "ECCENTRICITY": 0.00043582, "INCLINATION": 0.0652, "RA_OF_ASC_NODE": 358.7176, "ARG_OF_PERICENTER": 323.511, "MEAN_ANOMALY": 204.3565, "EPHEMERIS_TYPE": 0, "CLASSIFICATION_TYPE": "U", "NORAD_CAT_ID": 39163, "ELEMENT_SET_NO": 999, "REV_AT_EPOCH": 4615, "BSTAR": 0, "MEAN_MOTION_DOT": 7.2e-07, "MEAN_MOTION_DDOT": 0}, "tle": {"line1": "1 39163U 13022A   25354.19597928  .00000072  00000+0  00000+0 0  9996", "line2": "2 39163   0.0652 358.7176 0004358 323.5110 204.3565  1.00270740 46151"}}, "geometry": {"type": "Point", "coordinates": [-44.069217878942965, -0.06241263711130599]}}, {"type": "Feature", "properties": {"norad_id": 39612, "name": "EXPRESS-AT1", "group": "eutelsat", "lat": 0.0034823544007932025, "lon": 4.914456902276773, "alt_km": 35786.212480222544, "timestamp": "2025-12-20T14:38:01.629994+00:00", "meta": {"OBJECT_NAME": "EXPRESS-AT1", "OBJECT_ID": "2014-010A", "EPOCH": "2025-12-19T13:31:46.041312", "MEAN_MOTION": 1.00270605, "ECCENTRICITY": 4.94e-05, "INCLINATION": 0.022, "RA_OF_ASC_NODE": 3.3546, "ARG_OF_PERICENTER": 88.7338, "MEAN_ANOMALY": 255.2488, "EPHEMERIS_TYPE": 0, "CLASSIFICATION_TYPE": "U", "NORAD_CAT_ID": 39612, "ELEMENT_SET_NO": 999, "REV_AT_EPOCH": 4301, "BSTAR": 0, "MEAN_MOTION_DOT": 0, "MEAN_MOTION_DDOT": 0}, "tle": {"line1": "1 39612U 14010A   25353.56372733  .00000000  00000+0  00000+0 0  9999", "line2": "2 39612   0.0220   3.3546 0000494  88.7338 255.2488  1.00270605 43015"}}, "geometry": {"type": "Point", "coordinates": [4.914456902276773, 0.0034823544007932025]}}, {"type": "Feature", "properties": {"norad_id": 39613, "name": "EXPRESS-AT2", "group": "eutelsat", "lat": 0.0379000317654032, "lon": 88.79848740521669, "alt_km": 35790.243817325776, "timestamp": "2025-12-20T14:38:01.630025+00:00", "meta": {"OBJECT_NAME": "EXPRESS-AT2", "OBJECT_ID": "2014-010B", "EPOCH": "2025-12-20T07:02:51.639072", "MEAN_MOTION": 1.00271348, "ECCENTRICITY": 0.00010191, "INCLINATION": 0.0175, "RA_OF_ASC_NODE": 325.0132, "ARG_OF_PERICENTER": 325.6929, "MEAN_ANOMALY": 43.995, "EPHEMERIS_TYPE": 0, "CLASSIFICATION_TYPE": "U", "NORAD_CAT_ID": 39613, "ELEMENT_SET_NO": 999, "REV_AT_EPOCH": 4270, "BSTAR": 0, "MEAN_MOTION_DOT": -2.57e-06, "MEAN_MOTION_DDOT": 0}, "tle": {"line1": "1 39613U 14010B   25354.29365323 -.00000257  00000+0  00000+0 0  9993", "line2": "2 39613   0.0175 325.0132 0001019 325.6929  43.9950  1.00271348 42709"}}, "geometry": {"type": "Point", "coordinates": [88.79848740521669, 0.0379000317654032]}}, {"type": "Feature", "properties": {"norad_id": 39773, "name": "EUTELSAT 3B", "group": "eutelsat", "lat": -0.06879625027455367, "lon": -47.9201442411276, "alt_km": 35782.50018406178, "timestamp": "2025-12-20T14:38:01.630039+00:00", "meta": {"OBJECT_NAME": "EUTELSAT 3B", "OBJECT_ID": "2014-030A", "EPOCH": "2025-12-20T02:58:22.554624", "MEAN_MOTION": 1.00272501, "ECCENTRICITY": 0.0004169, "INCLINATION": 0.0607, "RA_OF_ASC_NODE": 5.5727, "ARG_OF_PERICENTER": 227.188, "MEAN_ANOMALY": 263.8885, "EPHEMERIS_TYPE": 0, "CLASSIFICATION_TYPE": "U", "NORAD_CAT_ID": 39773, "ELEMENT_SET_NO": 999, "REV_AT_EPOCH": 4227, "BSTAR": 0, "MEAN_MOTION_DOT": 4.4e-07, "MEAN_MOTION_DDOT": 0}, "tle": {"line1": "1 39773U 14030A   25354.12387216  .00000044  00000+0  00000+0 0  9992", "line2": "2 39773   0.0607   5.5727 0004169 227.1880 263.8885  1.00272501 42271"}}, "geometry": {"type": "Point", "coordinates": [-47.9201442411276, -0.06879625027455367]}}, {"type": "Feature", "properties": {"norad_id": 40425, "name": "EUTELSAT 115 WEST B", "group": "eutelsat", "lat": 0.006228375974113065, "lon": -165.9583487557184, "alt_km": 35787.190551457184, "timestamp": "2025-12-20T14:38:01.630052+00:00", "meta": {"OBJECT_NAME": "EUTELSAT 115 WEST B", "OBJECT_ID": "2015-010B", "EPOCH": "2025-12-20T04:37:38.709696", "MEAN_MOTION": 1.00271744, "ECCENTRICITY": 3.747e-05, "INCLINATION": 0.0106, "RA_OF_ASC_NODE": 158.3005, "ARG_OF_PERICENTER": 170.8788, "MEAN_ANOMALY": 74.3684, "EPHEMERIS_TYPE": 0, "CLASSIFICATION_TYPE": "U", "NORAD_CAT_ID": 40425, "ELEMENT_SET_NO": 999, "REV_AT_EPOCH": 3959, "BSTAR": 0, "MEAN_MOTION_DOT": -1e-08, "MEAN_MOTION_DDOT": 0}, "tle": {"line1": "1 40425U 15010B   25354.19280914 -.00000001  00000+0  00000+0 0  9995", "line2": "2 40425   0.0106 158.3005 0000374 170.8788  74.3684  1.00271744 39593"}}, "geometry": {"type": "Point", "coordinates": [-165.9583487557184, 0.006228375974113065]}}, {"type": "Feature", "properties": {"norad_id": 40875, "name": "EUTELSAT 8 WEST B", "group": "eutelsat", "lat": -0.07551915992972164, "lon": -59.03077445668192, "alt_km": 35770.775403876316, "timestamp": "2025-12-20T14:38:01.630064+00:00", "meta": {"OBJECT_NAME": "EUTELSAT 8 WEST B", "OBJECT_ID": "2015-039B", "EPOCH": "2025-12-20T03:56:38.500800", "MEAN_MOTION": 1.00271058, "ECCENTRICITY": 0.00042762, "INCLINATION": 0.0633, "RA_OF_ASC_NODE": 357.3872, "ARG_OF_PERICENTER": 272.4558, "MEAN_ANOMALY": 230.3262, "EPHEMERIS_TYPE": 0, "CLASSIFICATION_TYPE": "U", "NORAD_CAT_ID": 40875, "ELEMENT_SET_NO": 999, "REV_AT_EPOCH": 3786, "BSTAR": 0, "MEAN_MOTION_DOT": -4.2e-07, "MEAN_MOTION_DDOT": 0}, "tle": {"line1": "1 40875U 15039B   25354.16433450 -.00000042  00000+0  00000+0 0  9992", "line2": "2 40875   0.0633 357.3872 0004276 272.4558 230.3262  1.00271058 37861"}}, "geometry": {"type": "Point", "coordinates": [-59.03077445668192, -0.07551915992972164]}}, {"type": "Feature", "properties": {"norad_id": 41310, "name": "EUTELSAT 9B", "group": "eutelsat", "lat": -0.06994329655451526, "lon": -42.03177561727571, "alt_km": 35771.966515114014, "timestamp": "2025-12-20T14:38:01.630076+00:00", "meta": {"OBJECT_NAME": "EUTELSAT 9B", "OBJECT_ID": "2016-005A", "EPOCH": "2025-12-20T03:00:07.388064", "MEAN_MOTION": 1.00272576, "ECCENTRICITY": 0.0004466, "INCLINATION": 0.0617, "RA_OF_ASC_NODE": 71.3898, "ARG_OF_PERICENTER": 203.7211, "MEAN_ANOMALY": 227.8764, "EPHEMERIS_TYPE": 0, "CLASSIFICATION_TYPE": "U", "NORAD_CAT_ID": 41310, "ELEMENT_SET_NO": 999, "REV_AT_EPOCH": 3632, "BSTAR": 0, "MEAN_MOTION_DOT": 8.6e-07, "MEAN_MOTION_DDOT": 0}, "tle": {"line1": "1 41310U 16005A   25354.12508551  .00000086  00000+0  00000+0 0  9999", "line2": "2 41310   0.0617  71.3898 0004466 203.7211 227.8764  1.00272576 36327"}}, "geometry": {"type": "Point", "coordinates": [-42.03177561727571, -0.06994329655451526]}}, {"type": "Feature", "properties": {"norad_id": 41382, "name": "EUTELSAT 65 WEST A", "group": "eutelsat", "lat": -0.07781509750339476, "lon": -116.27663632721132, "alt_km": 35777.58970685508, "timestamp": "2025-12-20T14:38:01.630088+00:00", "meta": {"OBJECT_NAME": "EUTELSAT 65 WEST A", "OBJECT_ID": "2016-014A", "EPOCH": "2025-12-20T04:21:37.082016", "MEAN_MOTION": 1.00274182, "ECCENTRICITY": 0.00021208, "INCLINATION": 0.0535, "RA_OF_ASC_NODE": 331.4387, "ARG_OF_PERICENTER": 301.0776, "MEAN_ANOMALY": 176.7007, "EPHEMERIS_TYPE": 0, "CLASSIFICATION_TYPE": "U", "NORAD_CAT_ID": 41382, "ELEMENT_SET_NO": 999, "REV_AT_EPOCH": 3574, "BSTAR": 0, "MEAN_MOTION_DOT": -2.52e-06, "MEAN_MOTION_DDOT": 0}, "tle": {"line1": "1 41382U 16014A   25354.18167919 -.00000252  00000+0  00000+0 0  9999", "line2": "2 41382   0.0535 331.4387 0002120 301.0776 176.7007  1.00274182 35743"}}, "geometry": {"type": "Point", "coordinates": [-116.27663632721132, -0.07781509750339476]}}, {"type": "Feature", "properties": {"norad_id": 41589, "name": "EUTELSAT 117 WEST B", "group": "eutelsat", "lat": 0.003881083708197501, "lon": -168.04905079926687, "alt_km": 35786.96808398705, "timestamp": "2025-12-20T14:38:01.630099+00:00", "meta": {"OBJECT_NAME": "EUTELSAT 117 WEST B", "OBJECT_ID": "2016-038B", "EPOCH": "2025-12-19T12:07:15.989088", "MEAN_MOTION": 1.00271292, "ECCENTRICITY": 3.33e-05, "INCLINATION": 0.0139, "RA_OF_ASC_NODE": 154.0822, "ARG_OF_PERICENTER": 162.5919, "MEAN_ANOMALY": 196.5118, "EPHEMERIS_TYPE": 0, "CLASSIFICATION_TYPE": "U", "NORAD_CAT_ID": 41589, "ELEMENT_SET_NO": 999, "REV_AT_EPOCH": 3486, "BSTAR": 0, "MEAN_MOTION_DOT": 1.3e-07, "MEAN_MOTION_DDOT": 0}, "tle": {"line1": "1 41589U 16038B   25353.50504617  .00000013  00000+0  00000+0 0  9993", "line2": "2 41589   0.0139 154.0822 0000333 162.5919 196.5118  1.00271292 34862"}}, "geometry": {"type": "Point", "coordinates": [-168.04905079926687, 0.003881083708197501]}}]}